[
  {
    "OBJECT_NAME": "STARLINK-2211",
    "OBJECT_ID": "21017BJ",
    "EPOCH": "2025-11-11T04:39:36.591264",
    "MEAN_MOTION": 15.06418179,
    "ECCENTRICITY": 0.0001576,
    "INCLINATION": 53.0541,
    "RA_OF_ASC_NODE": 23.5631,
    "ARG_OF_PERICENTER": 57.7388,
    "MEAN_ANOMALY": 302.3753,
    "EPHEMERIS_TYPE": 0,
    "CLASSIFICATION_TYPE": "U",
    "NORAD_CAT_ID": 47778,
    "ELEMENT_SET_NO": 999,
    "REV_AT_EPOCH": 25988,
    "BSTAR": 0.0013377,
    "MEAN_MOTION_DOT": 0.0001971,
    "MEAN_MOTION_DDOT": 0.0,
    "TLE_LINE1": "1 47778U 21017BJ  25315.19417351  .00019710  00000+0  13377-2 0  9991",
    "TLE_LINE2": "2 47778  53.0541  23.5631 0001576  57.7388 302.3753 15.06418179259887",
    "COMMENT": "Grouped by shell and plane from TLE"
  },
  {
    "OBJECT_NAME": "STARLINK-2213",
    "OBJECT_ID": "21017BL",
    "EPOCH": "2025-11-11T05:16:46.711776",
    "MEAN_MOTION": 15.06380327,
    "ECCENTRICITY": 0.0001314,
    "INCLINATION": 53.0554,
    "RA_OF_ASC_NODE": 23.4504,
    "ARG_OF_PERICENTER": 98.1644,
    "MEAN_ANOMALY": 261.9494,
    "EPHEMERIS_TYPE": 0,
    "CLASSIFICATION_TYPE": "U",
    "NORAD_CAT_ID": 47780,
    "ELEMENT_SET_NO": 999,
    "REV_AT_EPOCH": 25992,
    "BSTAR": 0.0,
    "MEAN_MOTION_DOT": -5.948e-05,
    "MEAN_MOTION_DDOT": 0.0,
    "TLE_LINE1": "1 47780U 21017BL  25315.21998509 -.00005948  00000+0 -38093-3 0  9999",
    "TLE_LINE2": "2 47780  53.0554  23.4504 0001314  98.1644 261.9494 15.06380327259926",
    "COMMENT": "Grouped by shell and plane from TLE"
  },
  {
    "OBJECT_NAME": "STARLINK-2330",
    "OBJECT_ID": "21021Q",
    "EPOCH": "2025-11-11T04:46:54.973632",
    "MEAN_MOTION": 15.06417911,
    "ECCENTRICITY": 0.000127,
    "INCLINATION": 53.0557,
    "RA_OF_ASC_NODE": 28.5498,
    "ARG_OF_PERICENTER": 110.7017,
    "MEAN_ANOMALY": 249.4108,
    "EPHEMERIS_TYPE": 0,
    "CLASSIFICATION_TYPE": "U",
    "NORAD_CAT_ID": 47874,
    "ELEMENT_SET_NO": 999,
    "REV_AT_EPOCH": 25910,
    "BSTAR": 0.0014893999999999999,
    "MEAN_MOTION_DOT": 0.00021983,
    "MEAN_MOTION_DDOT": 0.0,
    "TLE_LINE1": "1 47874U 21021Q   25315.19924738  .00021983  00000+0  14894-2 0  9995",
    "TLE_LINE2": "2 47874  53.0557  28.5498 0001270 110.7017 249.4108 15.06417911259100",
    "COMMENT": "Grouped by shell and plane from TLE"
  },
  {
    "OBJECT_NAME": "STARLINK-3079",
    "OBJECT_ID": "21104AB",
    "EPOCH": "2025-11-11T04:41:36.018528",
    "MEAN_MOTION": 15.08847446,
    "ECCENTRICITY": 0.0001269,
    "INCLINATION": 53.2189,
    "RA_OF_ASC_NODE": 21.062,
    "ARG_OF_PERICENTER": 89.053,
    "MEAN_ANOMALY": 271.0607,
    "EPHEMERIS_TYPE": 0,
    "CLASSIFICATION_TYPE": "U",
    "NORAD_CAT_ID": 49433,
    "ELEMENT_SET_NO": 999,
    "REV_AT_EPOCH": 22211,
    "BSTAR": 7.2283e-05,
    "MEAN_MOTION_DOT": 8.63e-06,
    "MEAN_MOTION_DDOT": 0.0,
    "TLE_LINE1": "1 49433U 21104AB  25315.19555577  .00000863  00000+0  72283-4 0  9993",
    "TLE_LINE2": "2 49433  53.2189  21.0620 0001269  89.0530 271.0607 15.08847446222115",
    "COMMENT": "Grouped by shell and plane from TLE"
  },
  {
    "OBJECT_NAME": "STARLINK-3117",
    "OBJECT_ID": "21104AD",
    "EPOCH": "2025-11-10T14:29:48.240384",
    "MEAN_MOTION": 15.08845205,
    "ECCENTRICITY": 0.0001498,
    "INCLINATION": 53.2191,
    "RA_OF_ASC_NODE": 23.7138,
    "ARG_OF_PERICENTER": 98.6325,
    "MEAN_ANOMALY": 261.4837,
    "EPHEMERIS_TYPE": 0,
    "CLASSIFICATION_TYPE": "U",
    "NORAD_CAT_ID": 49435,
    "ELEMENT_SET_NO": 999,
    "REV_AT_EPOCH": 22093,
    "BSTAR": 1.6836000000000003e-05,
    "MEAN_MOTION_DOT": -2e-07,
    "MEAN_MOTION_DDOT": 0.0,
    "TLE_LINE1": "1 49435U 21104AD  25314.60403056 -.00000020  00000+0  16836-4 0  9992",
    "TLE_LINE2": "2 49435  53.2191  23.7138 0001498  98.6325 261.4837 15.08845205220932",
    "COMMENT": "Grouped by shell and plane from TLE"
  },
  {
    "OBJECT_NAME": "STARLINK-3049",
    "OBJECT_ID": "21104AE",
    "EPOCH": "2025-11-11T04:46:54.035328",
    "MEAN_MOTION": 15.08837875,
    "ECCENTRICITY": 0.0001318,
    "INCLINATION": 53.2182,
    "RA_OF_ASC_NODE": 21.0422,
    "ARG_OF_PERICENTER": 95.1651,
    "MEAN_ANOMALY": 264.9491,
    "EPHEMERIS_TYPE": 0,
    "CLASSIFICATION_TYPE": "U",
    "NORAD_CAT_ID": 49436,
    "ELEMENT_SET_NO": 999,
    "REV_AT_EPOCH": 22102,
    "BSTAR": 2.4225e-05,
    "MEAN_MOTION_DOT": 9.8e-07,
    "MEAN_MOTION_DDOT": 0.0,
    "TLE_LINE1": "1 49436U 21104AE  25315.19923652  .00000098  00000+0  24225-4 0  9992",
    "TLE_LINE2": "2 49436  53.2182  21.0422 0001318  95.1651 264.9491 15.08837875221024",
    "COMMENT": "Grouped by shell and plane from TLE"
  },
  {
    "OBJECT_NAME": "STARLINK-3130",
    "OBJECT_ID": "21104AF",
    "EPOCH": "2025-11-11T04:36:18.165024",
    "MEAN_MOTION": 15.08841202,
    "ECCENTRICITY": 0.0001403,
    "INCLINATION": 53.2185,
    "RA_OF_ASC_NODE": 21.0759,
    "ARG_OF_PERICENTER": 94.3124,
    "MEAN_ANOMALY": 265.8029,
    "EPHEMERIS_TYPE": 0,
    "CLASSIFICATION_TYPE": "U",
    "NORAD_CAT_ID": 49437,
    "ELEMENT_SET_NO": 999,
    "REV_AT_EPOCH": 22102,
    "BSTAR": 0.00010156999999999999,
    "MEAN_MOTION_DOT": 1.329e-05,
    "MEAN_MOTION_DDOT": 0.0,
    "TLE_LINE1": "1 49437U 21104AF  25315.19187691  .00001329  00000+0  10157-3 0  9994",
    "TLE_LINE2": "2 49437  53.2185  21.0759 0001403  94.3124 265.8029 15.08841202221028",
    "COMMENT": "Grouped by shell and plane from TLE"
  },
  {
    "OBJECT_NAME": "STARLINK-3044",
    "OBJECT_ID": "21104AG",
    "EPOCH": "2025-11-11T04:21:46.185120",
    "MEAN_MOTION": 15.08844673,
    "ECCENTRICITY": 0.0001518,
    "INCLINATION": 53.2165,
    "RA_OF_ASC_NODE": 21.0558,
    "ARG_OF_PERICENTER": 82.8897,
    "MEAN_ANOMALY": 277.2268,
    "EPHEMERIS_TYPE": 0,
    "CLASSIFICATION_TYPE": "U",
    "NORAD_CAT_ID": 49438,
    "ELEMENT_SET_NO": 999,
    "REV_AT_EPOCH": 22102,
    "BSTAR": 0.0,
    "MEAN_MOTION_DOT": -8.65e-06,
    "MEAN_MOTION_DDOT": 0.0,
    "TLE_LINE1": "1 49438U 21104AG  25315.18178455 -.00000865  00000+0 -36273-4 0  9996",
    "TLE_LINE2": "2 49438  53.2165  21.0558 0001518  82.8897 277.2268 15.08844673221027",
    "COMMENT": "Grouped by shell and plane from TLE"
  },
  {
    "OBJECT_NAME": "STARLINK-3105",
    "OBJECT_ID": "21104AJ",
    "EPOCH": "2025-11-11T04:25:42.431232",
    "MEAN_MOTION": 15.08846864,
    "ECCENTRICITY": 0.0001376,
    "INCLINATION": 53.2173,
    "RA_OF_ASC_NODE": 21.1106,
    "ARG_OF_PERICENTER": 86.8386,
    "MEAN_ANOMALY": 273.2764,
    "EPHEMERIS_TYPE": 0,
    "CLASSIFICATION_TYPE": "U",
    "NORAD_CAT_ID": 49440,
    "ELEMENT_SET_NO": 999,
    "REV_AT_EPOCH": 22102,
    "BSTAR": 0.00020087,
    "MEAN_MOTION_DOT": 2.911e-05,
    "MEAN_MOTION_DDOT": 0.0,
    "TLE_LINE1": "1 49440U 21104AJ  25315.18451888  .00002911  00000+0  20087-3 0  9990",
    "TLE_LINE2": "2 49440  53.2173  21.1106 0001376  86.8386 273.2764 15.08846864221029",
    "COMMENT": "Grouped by shell and plane from TLE"
  },
  {
    "OBJECT_NAME": "STARLINK-3128",
    "OBJECT_ID": "21104AK",
    "EPOCH": "2025-11-11T05:34:37.705440",
    "MEAN_MOTION": 15.08817422,
    "ECCENTRICITY": 0.0001381,
    "INCLINATION": 53.2173,
    "RA_OF_ASC_NODE": 20.8958,
    "ARG_OF_PERICENTER": 84.0973,
    "MEAN_ANOMALY": 276.0176,
    "EPHEMERIS_TYPE": 0,
    "CLASSIFICATION_TYPE": "U",
    "NORAD_CAT_ID": 49441,
    "ELEMENT_SET_NO": 999,
    "REV_AT_EPOCH": 22103,
    "BSTAR": 0.0,
    "MEAN_MOTION_DOT": -2.021e-05,
    "MEAN_MOTION_DDOT": 0.0,
    "TLE_LINE1": "1 49441U 21104AK  25315.23238085 -.00002021  00000+0 -10898-3 0  9992",
    "TLE_LINE2": "2 49441  53.2173  20.8958 0001381  84.0973 276.0176 15.08817422221036",
    "COMMENT": "Grouped by shell and plane from TLE"
  },
  {
    "OBJECT_NAME": "STARLINK-3098",
    "OBJECT_ID": "21104AL",
    "EPOCH": "2025-11-11T04:20:23.659296",
    "MEAN_MOTION": 15.08865471,
    "ECCENTRICITY": 0.0001613,
    "INCLINATION": 53.219,
    "RA_OF_ASC_NODE": 21.1266,
    "ARG_OF_PERICENTER": 78.4405,
    "MEAN_ANOMALY": 281.6769,
    "EPHEMERIS_TYPE": 0,
    "CLASSIFICATION_TYPE": "U",
    "NORAD_CAT_ID": 49442,
    "ELEMENT_SET_NO": 999,
    "REV_AT_EPOCH": 22102,
    "BSTAR": 0.0,
    "MEAN_MOTION_DOT": -2.781e-05,
    "MEAN_MOTION_DDOT": 0.0,
    "TLE_LINE1": "1 49442U 21104AL  25315.18082939 -.00002781  00000+0 -15657-3 0  9993",
    "TLE_LINE2": "2 49442  53.2190  21.1266 0001613  78.4405 281.6769 15.08865471221023",
    "COMMENT": "Grouped by shell and plane from TLE"
  },
  {
    "OBJECT_NAME": "STARLINK-3136",
    "OBJECT_ID": "21104AM",
    "EPOCH": "2025-11-10T13:35:26.634336",
    "MEAN_MOTION": 15.08839783,
    "ECCENTRICITY": 0.0001281,
    "INCLINATION": 53.2185,
    "RA_OF_ASC_NODE": 23.886,
    "ARG_OF_PERICENTER": 100.7731,
    "MEAN_ANOMALY": 259.3406,
    "EPHEMERIS_TYPE": 0,
    "CLASSIFICATION_TYPE": "U",
    "NORAD_CAT_ID": 49443,
    "ELEMENT_SET_NO": 999,
    "REV_AT_EPOCH": 22093,
    "BSTAR": 2.4055000000000003e-05,
    "MEAN_MOTION_DOT": 9.5e-07,
    "MEAN_MOTION_DDOT": 0.0,
    "TLE_LINE1": "1 49443U 21104AM  25314.56628049  .00000095  00000+0  24055-4 0  9990",
    "TLE_LINE2": "2 49443  53.2185  23.8860 0001281 100.7731 259.3406 15.08839783220935",
    "COMMENT": "Grouped by shell and plane from TLE"
  },
  {
    "OBJECT_NAME": "STARLINK-3126",
    "OBJECT_ID": "21104AN",
    "EPOCH": "2025-11-11T04:16:29.294112",
    "MEAN_MOTION": 15.08841773,
    "ECCENTRICITY": 0.0001991,
    "INCLINATION": 53.22,
    "RA_OF_ASC_NODE": 21.1508,
    "ARG_OF_PERICENTER": 93.2656,
    "MEAN_ANOMALY": 266.8564,
    "EPHEMERIS_TYPE": 0,
    "CLASSIFICATION_TYPE": "U",
    "NORAD_CAT_ID": 49444,
    "ELEMENT_SET_NO": 999,
    "REV_AT_EPOCH": 22102,
    "BSTAR": 6.450000000000001e-05,
    "MEAN_MOTION_DOT": 7.39e-06,
    "MEAN_MOTION_DDOT": 0.0,
    "TLE_LINE1": "1 49444U 21104AN  25315.17811683  .00000739  00000+0  64500-4 0  9991",
    "TLE_LINE2": "2 49444  53.2200  21.1508 0001991  93.2656 266.8564 15.08841773221025",
    "COMMENT": "Grouped by shell and plane from TLE"
  }
]